start=new Date('2022-05-19T00:00:00.000Z').valueOf();
sats=[{"OBJECT_TYPE":"PAYLOAD","MEAN_ELEMENT_THEORY":"SGP4","TLE_LINE2":"2 46340  53.0554 141.0248 0001907  42.8375 317.2762 15.06402416 94658","APOAPSIS":"548.527","DECAY_DATE":null,"PERIAPSIS":"545.885","TLE_LINE1":"1 46340U 20062R   22138.69778122  .00001094  00000-0  92324-4 0  9993","EPOCH":"2022-05-18T16:44:48.297408","SITE":"AFETR","EPHEMERIS_TYPE":"0","FILE":"3452356","REF_FRAME":"TEME","MEAN_MOTION_DOT":"0.00001094","LAUNCH_DATE":"2020-09-03","OBJECT_ID":"2020-062R","REV_AT_EPOCH":"9465","GP_ID":"203902737","RA_OF_ASC_NODE":"141.0248","BSTAR":"0.00009232400000","MEAN_MOTION_DDOT":"0.0000000000000","OBJECT_NAME":"STARLINK-1759","SEMIMAJOR_AXIS":"6925.341","MEAN_MOTION":"15.06402416","TIME_SYSTEM":"UTC","INCLINATION":"53.0554","ELEMENT_SET_NO":"999","ARG_OF_PERICENTER":"42.8375","PERIOD":"95.592","CENTER_NAME":"EARTH","COUNTRY_CODE":"US","CLASSIFICATION_TYPE":"U","MEAN_ANOMALY":"317.2762","ECCENTRICITY":"0.00019070","RCS_SIZE":"LARGE","NORAD_CAT_ID":"46340"},{"APOAPSIS":"548.601","DECAY_DATE":null,"PERIAPSIS":"545.798","TLE_LINE1":"1 46341U 20062S   22138.23981571  .00001782  00000-0  13847-3 0  9994","EPOCH":"2022-05-18T05:45:20.077344","SITE":"AFETR","OBJECT_TYPE":"PAYLOAD","TLE_LINE2":"2 46341  53.0555 123.0798 0002024  50.1048 310.0119 15.06404610 94879","MEAN_ELEMENT_THEORY":"SGP4","LAUNCH_DATE":"2020-09-03","OBJECT_ID":"2020-062S","GP_ID":"203869564","RA_OF_ASC_NODE":"123.0798","REV_AT_EPOCH":"9487","FILE":"3451871","EPHEMERIS_TYPE":"0","MEAN_MOTION_DOT":"0.00001782","REF_FRAME":"TEME","MEAN_MOTION":"15.06404610","SEMIMAJOR_AXIS":"6925.334","INCLINATION":"53.0555","ELEMENT_SET_NO":"999","ARG_OF_PERICENTER":"50.1048","TIME_SYSTEM":"UTC","BSTAR":"0.00013847000000","MEAN_MOTION_DDOT":"0.0000000000000","OBJECT_NAME":"STARLINK-1760","NORAD_CAT_ID":"46341","RCS_SIZE":"LARGE","PERIOD":"95.592","CENTER_NAME":"EARTH","CLASSIFICATION_TYPE":"U","COUNTRY_CODE":"US","ECCENTRICITY":"0.00020240","MEAN_ANOMALY":"310.0119"},{"EPOCH":"2022-05-18T10:02:46.661568","TLE_LINE1":"1 46342U 20062T   22138.41859562  .00000900  00000-0  79351-4 0  9993","SITE":"AFETR","APOAPSIS":"548.630","PERIAPSIS":"545.833","DECAY_DATE":null,"MEAN_ELEMENT_THEORY":"SGP4","TLE_LINE2":"2 46342  53.0555 142.2612 0002020  51.0537 309.0632 15.06394122 94613","OBJECT_TYPE":"PAYLOAD","GP_ID":"203869814","RA_OF_ASC_NODE":"142.2612","REV_AT_EPOCH":"9461","LAUNCH_DATE":"2020-09-03","OBJECT_ID":"2020-062T","FILE":"3451871","EPHEMERIS_TYPE":"0","REF_FRAME":"TEME","MEAN_MOTION_DOT":"0.00000900","ARG_OF_PERICENTER":"51.0537","ELEMENT_SET_NO":"999","INCLINATION":"53.0555","TIME_SYSTEM":"UTC","MEAN_MOTION":"15.06394122","SEMIMAJOR_AXIS":"6925.367","OBJECT_NAME":"STARLINK-1762","BSTAR":"0.00007935100000","MEAN_MOTION_DDOT":"0.0000000000000","NORAD_CAT_ID":"46342","RCS_SIZE":"LARGE","ECCENTRICITY":"0.00020200","MEAN_ANOMALY":"309.0632","CENTER_NAME":"EARTH","PERIOD":"95.593","CLASSIFICATION_TYPE":"U","COUNTRY_CODE":"US"},{"RA_OF_ASC_NODE":"121.1235","GP_ID":"203903490","REV_AT_EPOCH":"9493","OBJECT_ID":"2020-062U","LAUNCH_DATE":"2020-09-03","MEAN_MOTION_DOT":"0.00003322","REF_FRAME":"TEME","FILE":"3452356","EPHEMERIS_TYPE":"0","SITE":"AFETR","TLE_LINE1":"1 46343U 20062U   22138.67845979  .00003322  00000-0  24179-3 0  9997","EPOCH":"2022-05-18T16:16:58.925856","DECAY_DATE":null,"PERIAPSIS":"545.720","APOAPSIS":"548.654","MEAN_ELEMENT_THEORY":"SGP4","TLE_LINE2":"2 46343  53.0543 121.1235 0002118  54.7184 305.4003 15.06408718 94938","OBJECT_TYPE":"PAYLOAD","NORAD_CAT_ID":"46343","RCS_SIZE":"LARGE","ECCENTRICITY":"0.00021180","MEAN_ANOMALY":"305.4003","CLASSIFICATION_TYPE":"U","COUNTRY_CODE":"US","PERIOD":"95.592","CENTER_NAME":"EARTH","ELEMENT_SET_NO":"999","ARG_OF_PERICENTER":"54.7184","INCLINATION":"53.0543","TIME_SYSTEM":"UTC","MEAN_MOTION":"15.06408718","SEMIMAJOR_AXIS":"6925.322","OBJECT_NAME":"STARLINK-1764","MEAN_MOTION_DDOT":"0.0000000000000","BSTAR":"0.00024179000000"},{"OBJECT_TYPE":"PAYLOAD","TLE_LINE2":"2 46344  53.0546 123.1184 0002199  34.0209 326.0920 15.06406109 94866","MEAN_ELEMENT_THEORY":"SGP4","DECAY_DATE":null,"PERIAPSIS":"545.672","APOAPSIS":"548.718","SITE":"AFETR","EPOCH":"2022-05-18T05:34:42.705408","TLE_LINE1":"1 46344U 20062V   22138.23243872  .00000330  00000-0  41089-4 0  9990","REF_FRAME":"TEME","MEAN_MOTION_DOT":"0.00000330","EPHEMERIS_TYPE":"0","FILE":"3451871","OBJECT_ID":"2020-062V","LAUNCH_DATE":"2020-09-03","REV_AT_EPOCH":"9486","RA_OF_ASC_NODE":"123.1184","GP_ID":"203870316","MEAN_MOTION_DDOT":"0.0000000000000","BSTAR":"0.00004108900000","OBJECT_NAME":"STARLINK-1765","SEMIMAJOR_AXIS":"6925.330","MEAN_MOTION":"15.06406109","TIME_SYSTEM":"UTC","ELEMENT_SET_NO":"999","ARG_OF_PERICENTER":"34.0209","INCLINATION":"53.0546","COUNTRY_CODE":"US","CLASSIFICATION_TYPE":"U","CENTER_NAME":"EARTH","PERIOD":"95.592","MEAN_ANOMALY":"326.0920","ECCENTRICITY":"0.00021990","RCS_SIZE":"LARGE","NORAD_CAT_ID":"46344"},{"MEAN_MOTION_DOT":"0.00000676","REF_FRAME":"TEME","FILE":"3452356","EPHEMERIS_TYPE":"0","REV_AT_EPOCH":"9465","GP_ID":"203902488","RA_OF_ASC_NODE":"141.0078","OBJECT_ID":"2020-062W","LAUNCH_DATE":"2020-09-03","TLE_LINE2":"2 46345  53.0543 141.0078 0001977  47.5969 312.5187 15.06393588 94658","MEAN_ELEMENT_THEORY":"SGP4","OBJECT_TYPE":"PAYLOAD","SITE":"AFETR","EPOCH":"2022-05-18T16:46:10.279776","TLE_LINE1":"1 46345U 20062W   22138.69873009  .00000676  00000-0  64330-4 0  9999","DECAY_DATE":null,"PERIAPSIS":"545.864","APOAPSIS":"548.602","MEAN_ANOMALY":"312.5187","ECCENTRICITY":"0.00019770","COUNTRY_CODE":"US","CLASSIFICATION_TYPE":"U","PERIOD":"95.593","CENTER_NAME":"EARTH","RCS_SIZE":"LARGE","NORAD_CAT_ID":"46345","OBJECT_NAME":"STARLINK-1767","MEAN_MOTION_DDOT":"0.0000000000000","BSTAR":"0.00006433000000","TIME_SYSTEM":"UTC","INCLINATION":"53.0543","ELEMENT_SET_NO":"999","ARG_OF_PERICENTER":"47.5969","SEMIMAJOR_AXIS":"6925.368","MEAN_MOTION":"15.06393588"},{"MEAN_MOTION_DDOT":"0.0000000000000","BSTAR":"0.00061337000000","OBJECT_NAME":"STARLINK-1546","MEAN_MOTION":"15.34276049","SEMIMAJOR_AXIS":"6841.209","ELEMENT_SET_NO":"999","INCLINATION":"53.0546","ARG_OF_PERICENTER":"36.4595","TIME_SYSTEM":"UTC","CLASSIFICATION_TYPE":"U","COUNTRY_CODE":"US","CENTER_NAME":"EARTH","PERIOD":"93.855","ECCENTRICITY":"0.00041890","MEAN_ANOMALY":"323.6690","NORAD_CAT_ID":"46346","RCS_SIZE":"LARGE","OBJECT_TYPE":"PAYLOAD","TLE_LINE2":"2 46346  53.0546 352.1538 0004189  36.4595 323.6690 15.34276049 96903","MEAN_ELEMENT_THEORY":"SGP4","PERIAPSIS":"460.208","DECAY_DATE":null,"APOAPSIS":"465.939","SITE":"AFETR","TLE_LINE1":"1 46346U 20062X   22138.31509979  .00020327  00000-0  61337-3 0  9999","EPOCH":"2022-05-18T07:33:44.621856","REF_FRAME":"TEME","MEAN_MOTION_DOT":"0.00020327","EPHEMERIS_TYPE":"0","FILE":"3452052","OBJECT_ID":"2020-062X","LAUNCH_DATE":"2020-09-03","RA_OF_ASC_NODE":"352.1538","GP_ID":"203876111","REV_AT_EPOCH":"9690"},{"SITE":"AFETR","TLE_LINE1":"1 46347U 20062Y   22138.59044827 -.00000134  00000-0  99541-5 0  9991","EPOCH":"2022-05-18T14:10:14.730528","DECAY_DATE":null,"PERIAPSIS":"545.676","APOAPSIS":"548.791","TLE_LINE2":"2 46347  53.0552  96.4955 0002249  48.3452 311.7730 15.06393432 95447","MEAN_ELEMENT_THEORY":"SGP4","OBJECT_TYPE":"PAYLOAD","REV_AT_EPOCH":"9544","RA_OF_ASC_NODE":"96.4955","GP_ID":"203876543","OBJECT_ID":"2020-062Y","LAUNCH_DATE":"2020-09-03","REF_FRAME":"TEME","MEAN_MOTION_DOT":"-0.00000134","EPHEMERIS_TYPE":"0","FILE":"3452055","TIME_SYSTEM":"UTC","INCLINATION":"53.0552","ELEMENT_SET_NO":"999","ARG_OF_PERICENTER":"48.3452","SEMIMAJOR_AXIS":"6925.369","MEAN_MOTION":"15.06393432","OBJECT_NAME":"STARLINK-1547","MEAN_MOTION_DDOT":"0.0000000000000","BSTAR":"0.00000995410000","RCS_SIZE":"LARGE","NORAD_CAT_ID":"46347","MEAN_ANOMALY":"311.7730","ECCENTRICITY":"0.00022490","COUNTRY_CODE":"US","CLASSIFICATION_TYPE":"U","CENTER_NAME":"EARTH","PERIOD":"95.593"},{"REV_AT_EPOCH":"9486","GP_ID":"203870816","RA_OF_ASC_NODE":"123.0836","LAUNCH_DATE":"2020-09-03","OBJECT_ID":"2020-062Z","FILE":"3451871","EPHEMERIS_TYPE":"0","REF_FRAME":"TEME","MEAN_MOTION_DOT":"0.00001890","EPOCH":"2022-05-18T05:40:01.962912","TLE_LINE1":"1 46348U 20062Z   22138.23613383  .00001890  00000-0  14574-3 0  9992","SITE":"AFETR","APOAPSIS":"548.784","DECAY_DATE":null,"PERIAPSIS":"545.628","MEAN_ELEMENT_THEORY":"SGP4","TLE_LINE2":"2 46348  53.0550 123.0836 0002279  47.0928 313.0252 15.06402404 94867","OBJECT_TYPE":"PAYLOAD","RCS_SIZE":"LARGE","NORAD_CAT_ID":"46348","MEAN_ANOMALY":"313.0252","ECCENTRICITY":"0.00022790","PERIOD":"95.592","CENTER_NAME":"EARTH","COUNTRY_CODE":"US","CLASSIFICATION_TYPE":"U","TIME_SYSTEM":"UTC","ARG_OF_PERICENTER":"47.0928","ELEMENT_SET_NO":"999","INCLINATION":"53.0550","SEMIMAJOR_AXIS":"6925.341","MEAN_MOTION":"15.06402404","OBJECT_NAME":"STARLINK-1553","BSTAR":"0.00014574000000","MEAN_MOTION_DDOT":"0.0000000000000"},{"BSTAR":"0.00005813800000","MEAN_MOTION_DDOT":"0.0000000000000","OBJECT_NAME":"STARLINK-1575","SEMIMAJOR_AXIS":"6925.327","MEAN_MOTION":"15.06406943","TIME_SYSTEM":"UTC","ELEMENT_SET_NO":"999","INCLINATION":"53.0552","ARG_OF_PERICENTER":"49.1232","CENTER_NAME":"EARTH","PERIOD":"95.592","COUNTRY_CODE":"US","CLASSIFICATION_TYPE":"U","MEAN_ANOMALY":"310.9940","ECCENTRICITY":"0.00021170","RCS_SIZE":"LARGE","NORAD_CAT_ID":"46349","OBJECT_TYPE":"PAYLOAD","TLE_LINE2":"2 46349  53.0552  97.8140 0002117  49.1232 310.9940 15.06406943 95221","MEAN_ELEMENT_THEORY":"SGP4","APOAPSIS":"548.658","DECAY_DATE":null,"PERIAPSIS":"545.726","TLE_LINE1":"1 46349U 20062AA  22138.29925243  .00000584  00000-0  58138-4 0  9994","EPOCH":"2022-05-18T07:10:55.409952","SITE":"AFETR","FILE":"3451871","EPHEMERIS_TYPE":"0","REF_FRAME":"TEME","MEAN_MOTION_DOT":"0.00000584","LAUNCH_DATE":"2020-09-03","OBJECT_ID":"2020-062AA","REV_AT_EPOCH":"9522","GP_ID":"203869565","RA_OF_ASC_NODE":"97.8140"}];
